{"spkid": "54410340", "covariance": {"epoch": "2459235.5", "elements": [{"label": "e", "units": null, "value": ".1945064810472063", "title": "eccentricity", "name": "e", "sigma": 1.36241091044016e-07}, {"units": "au", "value": "1.04456358870568", "title": "perihelion distance", "sigma": 1.88108742661758e-07, "name": "q", "label": "q"}, {"units": "TDB", "title": "time of perihelion passage", "value": "2459346.701061054731", "name": "tp", "sigma": 0.000577630025787611, "label": "tp"}, {"label": "node", "units": "deg", "value": "26.22505672612114", "title": "longitude of the ascending node", "name": "om", "sigma": 2.05729842429145e-05}, {"sigma": 0.000399623877720985, "name": "w", "title": "argument of perihelion", "value": "353.3335999822561", "units": "deg", "label": "peri"}, {"units": "deg", "title": "inclination", "value": "21.93813883140729", "sigma": 0.000114325802333509, "name": "i", "label": "i"}], "data": [["1.856163488886377E-14", "-2.347582877838339E-14", "-5.691922006419878E-12", "1.31053308300321E-12", "-4.568174567798234E-12", "-7.782512017885086E-12"], ["-2.347582877838339E-14", "3.538489906578736E-14", "-3.622935411525174E-11", "-2.897782292907693E-12", "-2.420481180724875E-11", "1.6708674545047E-11"], ["-5.691922006419878E-12", "-3.622935411525174E-11", "3.336564466913966E-7", "9.067503480995399E-9", "2.307406256671163E-7", "-5.001274285977267E-8"], ["1.31053308300321E-12", "-2.897782292907693E-12", "9.067503480995399E-9", "4.232476806592071E-10", "6.167642477007136E-9", "-2.121679961758424E-9"], ["-4.568174567798234E-12", "-2.420481180724875E-11", "2.307406256671163E-7", "6.167642477007136E-9", "1.596992436447566E-7", "-3.42448155564675E-8"], ["-7.782512017885086E-12", "1.6708674545047E-11", "-5.001274285977267E-8", "-2.121679961758424E-9", "-3.42448155564675E-8", "1.307038907920061E-8"]], "labels": ["e", "q", "tp", "node", "peri", "i"]}, "elements": [{"label": "e", "title": "eccentricity", "value": ".1949139455616584", "units": null, "name": "e", "sigma": "1.3816E-7"}, {"sigma": "9.0601E-8", "name": "a", "value": "1.297412530371224", "title": "semi-major axis", "units": "au", "label": "a"}, {"label": "q", "units": "au", "value": "1.044528735055434", "title": "perihelion distance", "name": "q", "sigma": "1.8861E-7"}, {"name": "i", "sigma": ".00011434", "title": "inclination; angle with respect to x-y ecliptic plane", "value": "21.93656700594075", "units": "deg", "label": "i"}, {"label": "node", "title": "longitude of the ascending node", "value": "26.19350164215313", "units": "deg", "sigma": "2.0432E-5", "name": "om"}, {"units": "deg", "title": "argument of perihelion", "value": "353.4468049964416", "name": "w", "sigma": ".00039945", "label": "peri"}, {"name": "ma", "sigma": ".00025119", "units": "deg", "title": "mean anomaly", "value": "156.9668541737811", "label": "M"}, {"units": "TDB", "title": "time of perihelion passage", "value": "2460965.146309538785", "name": "tp", "sigma": ".00040121", "label": "tp"}, {"sigma": "5.6541E-5", "name": "per", "title": "sidereal orbital period", "value": "539.7784711429214", "units": "d", "label": "period"}, {"label": "n", "name": "n", "sigma": "6.9861E-8", "units": "deg/d", "title": "mean motion", "value": ".6669402713260121"}, {"label": "Q", "title": "aphelion distance", "value": "1.550296325687015", "units": "au", "name": "ad", "sigma": "1.0826E-7"}], "epoch": "2461200.5"}